{"type": "FeatureCollection", "features": [ {"type": "Feature", "properties": {"norad_id": 37216, "name": "COSMO-SKYMED 4", "group": "resource", "lat": 22.61218825870523, "lon": 170.3817990797274, "alt_km": 621.6870838932537, "timestamp": "2025-12-18T10:51:25.445988+00:00", "meta": {"OBJECT_NAME": "COSMO-SKYMED 4", "OBJECT_ID": "2010-060A", "EPOCH": "2025-12-17T23:24:45.129312", "MEAN_MOTION": 14.82149852, "ECCENTRICITY": 0.00013813, "INCLINATION": 97.8801, "RA_OF_ASC_NODE": 173.2194, "ARG_OF_PERICENTER": 80.32, "MEAN_ANOMALY": 279.8169, "EPHEMERIS_TYPE": 0, "CLASSIFICATION_TYPE": "U", "NORAD_CAT_ID": 37216, "ELEMENT_SET_NO": 999, "REV_AT_EPOCH": 81772, "BSTAR": 9.72367e-06, "MEAN_MOTION_DOT": 2.5e-07, "MEAN_MOTION_DDOT": 0}, "tle": {"line1": "1 37216U 10060A   25351.97552233  .00000025  00000+0  97237-5 0  9997", "line2": "2 37216  97.8801 173.2194 0001381  80.3200 279.8169 14.82149852817728"}}, "geometry": {"type": "Point", "coordinates": [170.3817990797274, 22.61218825870523]}}, {"type": "Feature", "properties": {"norad_id": 37387, "name": "RESOURCESAT-2", "group": "resource", "lat": -4.837695212572559, "lon": -124.77173292470313, "alt_km": 827.5939912156355, "timestamp": "2025-12-18T10:51:25.446000+00:00", "meta": {"OBJECT_NAME": "RESOURCESAT-2", "OBJECT_ID": "2011-015A", "EPOCH": "2025-12-17T20:28:38.554464", "MEAN_MOTION": 14.21599276, "ECCENTRICITY": 0.00061994, "INCLINATION": 98.7872, "RA_OF_ASC_NODE": 55.382, "ARG_OF_PERICENTER": 29.0315, "MEAN_ANOMALY": 331.1206, "EPHEMERIS_TYPE": 0, "CLASSIFICATION_TYPE": "U", "NORAD_CAT_ID": 37387, "ELEMENT_SET_NO": 999, "REV_AT_EPOCH": 76041, "BSTAR": 7.2614789e-05, "MEAN_MOTION_DOT": 1.15e-06, "MEAN_MOTION_DDOT": 0}, "tle": {"line1": "1 37387U 11015A   25351.85322401  .00000115  00000+0  72615-4 0  9998", "line2": "2 37387  98.7872  55.3820 0006199  29.0315 331.1206 14.21599276760419"}}, "geometry": {"type": "Point", "coordinates": [-124.77173292470313, -4.837695212572559]}}, {"type": "Feature", "properties": {"norad_id": 37781, "name": "HAIYANG-2A", "group": "resource", "lat": 71.98656578451059, "lon": -37.096690547420856, "alt_km": 959.8439107433333, "timestamp": "2025-12-18T10:51:25.446011+00:00", "meta": {"OBJECT_NAME": "HAIYANG-2A", "OBJECT_ID": "2011-043A", "EPOCH": "2025-12-18T00:02:52.376640", "MEAN_MOTION": 13.7883515, "ECCENTRICITY": 0.00016256, "INCLINATION": 99.3376, "RA_OF_ASC_NODE": 352.8557, "ARG_OF_PERICENTER": 76.2794, "MEAN_ANOMALY": 283.8538, "EPHEMERIS_TYPE": 0, "CLASSIFICATION_TYPE": "U", "NORAD_CAT_ID": 37781, "ELEMENT_SET_NO": 999, "REV_AT_EPOCH": 72171, "BSTAR": -9.4686235e-05, "MEAN_MOTION_DOT": -1.4e-06, "MEAN_MOTION_DDOT": 0}, "tle": {"line1": "1 37781U 11043A   25352.00199510 -.00000140  00000+0 -94686-4 0  9990", "line2": "2 37781  99.3376 352.8557 0001625  76.2794 283.8538 13.78835150721715"}}, "geometry": {"type": "Point", "coordinates": [-37.096690547420856, 71.98656578451059]}}, {"type": "Feature", "properties": {"norad_id": 37791, "name": "RASAT", "group": "resource", "lat": -39.79406561719217, "lon": -105.15775620026142, "alt_km": 689.3876009183841, "timestamp": "2025-12-18T10:51:25.446023+00:00", "meta": {"OBJECT_NAME": "RASAT", "OBJECT_ID": "2011-044D", "EPOCH": "2025-12-17T22:54:27.597312", "MEAN_MOTION": 14.67915791, "ECCENTRICITY": 0.00216781, "INCLINATION": 98.0648, "RA_OF_ASC_NODE": 81.1348, "ARG_OF_PERICENTER": 49.2215, "MEAN_ANOMALY": 61.3915, "EPHEMERIS_TYPE": 0, "CLASSIFICATION_TYPE": "U", "NORAD_CAT_ID": 37791, "ELEMENT_SET_NO": 999, "REV_AT_EPOCH": 76659, "BSTAR": 4.420243e-05, "MEAN_MOTION_DOT": 2.05e-06, "MEAN_MOTION_DDOT": 0}, "tle": {"line1": "1 37791U 11044D   25351.95448608  .00000205  00000+0  44202-4 0  9999", "line2": "2 37791  98.0648  81.1348 0021678  49.2215  61.3915 14.67915791766594"}}, "geometry": {"type": "Point", "coordinates": [-105.15775620026142, -39.79406561719217]}}, {"type": "Feature", "properties": {"norad_id": 37841, "name": "SRMSAT", "group": "resource", "lat": 1.9319219227455036, "lon": 78.70926731441223, "alt_km": 843.1711004795116, "timestamp": "2025-12-18T10:51:25.446034+00:00", "meta": {"OBJECT_NAME": "SRMSAT", "OBJECT_ID": "2011-058D", "EPOCH": "2025-12-17T14:36:14.562432", "MEAN_MOTION": 14.11513105, "ECCENTRICITY": 0.0011885, "INCLINATION": 19.972, "RA_OF_ASC_NODE": 78.4836, "ARG_OF_PERICENTER": 7.0463, "MEAN_ANOMALY": 21.298, "EPHEMERIS_TYPE": 0, "CLASSIFICATION_TYPE": "U", "NORAD_CAT_ID": 37841, "ELEMENT_SET_NO": 999, "REV_AT_EPOCH": 73213, "BSTAR": 7.3050656e-05, "MEAN_MOTION_DOT": 3.99e-06, "MEAN_MOTION_DDOT": 0}, "tle": {"line1": "1 37841U 11058D   25351.60850188  .00000399  00000+0  73051-4 0  9990", "line2": "2 37841  19.9720  78.4836 0011885   7.0463  21.2980 14.11513105732132"}}, "geometry": {"type": "Point", "coordinates": [78.70926731441223, 1.9319219227455036]}}, {"type": "Feature", "properties": {"norad_id": 38012, "name": "PLEIADES 1A", "group": "resource", "lat": -3.42143106903024, "lon": -115.36002680613306, "alt_km": 701.5460973972849, "timestamp": "2025-12-18T10:51:25.446045+00:00", "meta": {"OBJECT_NAME": "PLEIADES 1A", "OBJECT_ID": "2011-076F", "EPOCH": "2025-12-17T23:17:09.187008", "MEAN_MOTION": 14.58566222, "ECCENTRICITY": 0.00011699, "INCLINATION": 98.1822, "RA_OF_ASC_NODE": 64.6582, "ARG_OF_PERICENTER": 72.0218, "MEAN_ANOMALY": 101.2019, "EPHEMERIS_TYPE": 0, "CLASSIFICATION_TYPE": "U", "NORAD_CAT_ID": 38012, "ELEMENT_SET_NO": 999, "REV_AT_EPOCH": 74557, "BSTAR": 7.7395529e-05, "MEAN_MOTION_DOT": 3.14e-06, "MEAN_MOTION_DDOT": 0}, "tle": {"line1": "1 38012U 11076F   25351.97024522  .00000314  00000+0  77396-4 0  9999", "line2": "2 38012  98.1822  64.6582 0001169  72.0218 101.2019 14.58566222745577"}}, "geometry": {"type": "Point", "coordinates": [-115.36002680613306, -3.42143106903024]}}, {"type": "Feature", "properties": {"norad_id": 38038, "name": "ZIYUAN 1-02C (ZY 1-02C)", "group": "resource", "lat": 28.68928266088489, "lon": 53.70413773263148, "alt_km": 764.0662831136151, "timestamp": "2025-12-18T10:51:25.446055+00:00", "meta": {"OBJECT_NAME": "ZIYUAN 1-02C (ZY 1-02C)", "OBJECT_ID": "2011-079A", "EPOCH": "2025-12-17T23:36:27.103392", "MEAN_MOTION": 14.38017457, "ECCENTRICITY": 0.00073648, "INCLINATION": 98.4333, "RA_OF_ASC_NODE": 57.9009, "ARG_OF_PERICENTER": 124.5386, "MEAN_ANOMALY": 359.5234, "EPHEMERIS_TYPE": 0, "CLASSIFICATION_TYPE": "U", "NORAD_CAT_ID": 38038, "ELEMENT_SET_NO": 999, "REV_AT_EPOCH": 73316, "BSTAR": 0.00011361241, "MEAN_MOTION_DOT": 3.01e-06, "MEAN_MOTION_DDOT": 0}, "tle": {"line1": "1 38038U 11079A   25351.98364703  .00000301  00000+0  11361-3 0  9994", "line2": "2 38038  98.4333  57.9009 0007364 124.5386 359.5234 14.38017457733164"}}, "geometry": {"type": "Point", "coordinates": [53.70413773263148, 28.68928266088489]}}, {"type": "Feature", "properties": {"norad_id": 38338, "name": "ARIRANG-3 (KOMPSAT-3)", "group": "resource", "lat": 33.9440108061706, "lon": 132.74655239983394, "alt_km": 688.995295618779, "timestamp": "2025-12-18T10:51:25.446066+00:00", "meta": {"OBJECT_NAME": "ARIRANG-3 (KOMPSAT-3)", "OBJECT_ID": "2012-025B", "EPOCH": "2025-12-17T22:41:35.092320", "MEAN_MOTION": 14.61719554, "ECCENTRICITY": 0.00050305, "INCLINATION": 98.3329, "RA_OF_ASC_NODE": 306.5743, "ARG_OF_PERICENTER": 320.8837, "MEAN_ANOMALY": 39.2, "EPHEMERIS_TYPE": 0, "CLASSIFICATION_TYPE": "U", "NORAD_CAT_ID": 38338, "ELEMENT_SET_NO": 999, "REV_AT_EPOCH": 72486, "BSTAR": 9.9431922e-05, "MEAN_MOTION_DOT": 4.47e-06, "MEAN_MOTION_DDOT": 0}, "tle": {"line1": "1 38338U 12025B   25351.94554505  .00000447  00000+0  99432-4 0  9993", "line2": "2 38338  98.3329 306.5743 0005030 320.8837  39.2000 14.61719554724862"}}, "geometry": {"type": "Point", "coordinates": [132.74655239983394, 33.9440108061706]}}, {"type": "Feature", "properties": {"norad_id": 38709, "name": "EXACTVIEW-1 (ADS-1B)", "group": "resource", "lat": 70.09802995165664, "lon": -53.19084070782905, "alt_km": 806.8081769378077, "timestamp": "2025-12-18T10:51:25.446076+00:00", "meta": {"OBJECT_NAME": "EXACTVIEW-1 (ADS-1B)", "OBJECT_ID": "2012-039C", "EPOCH": "2025-12-17T20:52:15.820320", "MEAN_MOTION": 14.24910031, "ECCENTRICITY": 0.00104088, "INCLINATION": 98.9637, "RA_OF_ASC_NODE": 100.3673, "ARG_OF_PERICENTER": 339.1318, "MEAN_ANOMALY": 20.9434, "EPHEMERIS_TYPE": 0, "CLASSIFICATION_TYPE": "U", "NORAD_CAT_ID": 38709, "ELEMENT_SET_NO": 999, "REV_AT_EPOCH": 69688, "BSTAR": 6.5888705e-05, "MEAN_MOTION_DOT": 1.08e-06, "MEAN_MOTION_DDOT": 0}, "tle": {"line1": "1 38709U 12039C   25351.86962755  .00000108  00000+0  65889-4 0  9994", "line2": "2 38709  98.9637 100.3673 0010408 339.1318  20.9434 14.24910031696886"}}, "geometry": {"type": "Point", "coordinates": [-53.19084070782905, 70.09802995165664]}}, {"type": "Feature", "properties": {"norad_id": 38755, "name": "SPOT 6", "group": "resource", "lat": 70.84928785332713, "lon": -98.47255869544554, "alt_km": 690.2259135818067, "timestamp": "2025-12-18T10:51:25.446087+00:00", "meta": {"OBJECT_NAME": "SPOT 6", "OBJECT_ID": "2012-047A", "EPOCH": "2025-12-17T22:50:29.478912", "MEAN_MOTION": 14.58536756, "ECCENTRICITY": 0.00013443, "INCLINATION": 98.1572, "RA_OF_ASC_NODE": 56.6407, "ARG_OF_PERICENTER": 78.5063, "MEAN_ANOMALY": 281.6287, "EPHEMERIS_TYPE": 0, "CLASSIFICATION_TYPE": "U", "NORAD_CAT_ID": 38755, "ELEMENT_SET_NO": 999, "REV_AT_EPOCH": 70663, "BSTAR": 3.22641e-05, "MEAN_MOTION_DOT": 1.05e-06, "MEAN_MOTION_DDOT": 0}, "tle": {"line1": "1 38755U 12047A   25351.95173008  .00000105  00000+0  32264-4 0  9997", "line2": "2 38755  98.1572  56.6407 0001344  78.5063 281.6287 14.58536756706637"}}, "geometry": {"type": "Point", "coordinates": [-98.47255869544554, 70.84928785332713]}}]}